FLOCK 3P-65             
1 42028U 17008CJ  17345.86334468  .00001184  00000-0  52293-4 0  9993
2 42028  97.4760  46.7173 0006965 314.8064  45.2606 15.23719140 45433
